     2.11           N: GPS NAV DATA                         RINEX VERSION / TYPE
teqc  2019Feb25     CORS-ADM Account    20240109 01:49:02UTCPGM / RUN BY / DATE
Linux 2.4.21-27.ELsmp|Opteron|gcc|Linux 64|=+               COMMENT
     2.10           N: GPS NAV DATA                         COMMENT
rvacn.e(1404.07)                        2024-01-09T01:48 UTCCOMMENT
This file contains the validated broadcast navigation       COMMENT
messages from the following files:                          COMMENT
abmf0070.24n, abpo0070.24n, albh0070.24n, areq0070.24n,     COMMENT
badg0070.24n, bake0070.24n, bogt0070.24n, brew0070.24n,     COMMENT
cas10070.24n, cedu0070.24n, chum0070.24n, chur0070.24n,     COMMENT
ckis0070.24n, cro10070.24n, daej0070.24n, dgar0070.24n,     COMMENT
drao0070.24n, dubo0070.24n, fair0070.24n, falk0070.24n,     COMMENT
flin0070.24n, glps0070.24n, glsv0070.24n, gode0070.24n,     COMMENT
godz0070.24n, gold0070.24n, harb0070.24n, hlfx0070.24n,     COMMENT
hob20070.24n, hofn0070.24n, holb0070.24n, hrao0070.24n,     COMMENT
iisc0070.24n, invk0070.24n, jplm0070.24n, kiri0070.24n,     COMMENT
kiru0070.24n, kokb0070.24n, kokv0070.24n, kour0070.24n,     COMMENT
lmmf0070.24n, mal20070.24n, mana0070.24n, mas10070.24n,     COMMENT
mat10070.24n, mate0070.24n, maui0070.24n, maw10070.24n,     COMMENT
mbar0070.24n, mcm40070.24n, mdo10070.24n, mkea0070.24n,     COMMENT
mobs0070.24n, mtka0070.24n, nano0070.24n, naur0070.24n,     COMMENT
nico0070.24n, nium0070.24n, nklg0070.24n, nnor0070.24n,     COMMENT
not10070.24n, nvsk0070.24n, pert0070.24n, pie10070.24n,     COMMENT
pimo0070.24n, pohn0070.24n, pol20070.24n, polv0070.24n,     COMMENT
reun0070.24n, sant0070.24n, sch20070.24n, stjo0070.24n,     COMMENT
suth0070.24n, sydn0070.24n, tid10070.24n, tow20070.24n,     COMMENT
twtf0070.24n, unbj0070.24n, vill0070.24n, whit0070.24n,     COMMENT
will0070.24n, wsrt0070.24n, yar20070.24n, yarr0070.24n,     COMMENT
yell0070.24n                                                COMMENT
    1.3970D-08 -7.4506D-09 -5.9605D-08  1.1921D-07          ION ALPHA
    1.2698D+05 -1.9661D+05  6.5536D+04  2.6214D+05          ION BETA
   -9.313225746155D-10-2.664535259100D-15   147456     2296 DELTA-UTC: A0,A1,T,W
                                                            END OF HEADER
10 24  1  7  8  0  0.0-6.834650412202D-05-1.477928890381D-12 0.000000000000D+00
    9.500000000000D+01-7.828125000000D+01 3.794443768099D-09 2.564837557791D+00
   -4.077330231667D-06 9.282537386753D-03 9.510666131973D-06 5.153695257187D+03
    2.880000000000D+04-3.539025783539D-08-7.078421773136D-01-1.806765794754D-07
    9.821874837540D-01 2.093750000000D+02-2.396222415802D+00-7.494240736636D-09
    2.475103097979D-10 1.000000000000D+00 2.296000000000D+03 0.000000000000D+00
    2.000000000000D+00 0.000000000000D+00 2.328306436539D-09 9.500000000000D+01
    2.534400000000D+04 4.000000000000D+00
11 24  1  7  8  0  0.0-5.306936800480D-04-1.432454155292D-11 0.000000000000D+00
    6.000000000000D+01-9.056250000000D+01 4.524117019062D-09-2.357797868888D-01
   -4.623085260391D-06 1.273059984669D-03 3.952533006668D-06 5.153649253845D+03
    2.880000000000D+04 1.676380634308D-08-1.706499361040D+00 2.980232238770D-08
    9.658728984489D-01 3.077187500000D+02-2.492129421822D+00-8.263201338361D-09
   -1.217907873609D-10 1.000000000000D+00 2.296000000000D+03 0.000000000000D+00
    2.000000000000D+00 0.000000000000D+00-8.381903171539D-09 3.160000000000D+02
    2.161800000000D+04 4.000000000000D+00
12 24  1  7  8  0  0.0-4.653842188418D-04-3.865352482535D-12 0.000000000000D+00
    4.000000000000D+00 9.006250000000D+01 4.079455639988D-09-2.982763879105D+00
    4.729256033897D-06 8.888389798813D-03 1.032650470734D-05 5.153738418579D+03
    2.880000000000D+04 8.754432201385D-08 2.503240079826D+00-1.676380634308D-08
    9.635932215026D-01 1.789375000000D+02 1.401523369062D+00-7.632460779770D-09
   -1.596495071856D-10 1.000000000000D+00 2.296000000000D+03 0.000000000000D+00
    2.000000000000D+00 0.000000000000D+00-1.257285475731D-08 4.000000000000D+00
    2.161800000000D+04 4.000000000000D+00
13 24  1  7  8  0  0.0 6.134258583188D-04 3.751665644813D-12 0.000000000000D+00
    9.700000000000D+01-5.187500000000D+00 4.650193699233D-09 2.268183574264D-01
   -1.657754182816D-07 7.755742641166D-03 6.947666406631D-06 5.153652818680D+03
    2.880000000000D+04-3.539025783539D-08 4.792788146293D-01 8.568167686462D-08
    9.708763957332D-01 2.492500000000D+02 9.501020783309D-01-8.055335537058D-09
    1.957224383395D-10 1.000000000000D+00 2.296000000000D+03 0.000000000000D+00
    2.000000000000D+00 0.000000000000D+00-1.117587089539D-08 9.700000000000D+01
    2.161800000000D+04 4.000000000000D+00
14 24  1  7  8  0  0.0 2.920185215771D-04 1.034550223267D-11 0.000000000000D+00
    2.150000000000D+02 9.878125000000D+01 4.484115352832D-09-2.993713889686D+00
    5.127862095833D-06 3.815682604909D-03 9.732320904732D-06 5.153690269470D+03
    2.880000000000D+04-1.303851604462D-08 2.461040844390D+00-3.352761268616D-08
    9.468899286234D-01 1.849375000000D+02-2.961987918846D+00-7.912472443380D-09
   -1.428630936784D-10 1.000000000000D+00 2.296000000000D+03 0.000000000000D+00
    2.000000000000D+00 0.000000000000D+00-7.916241884232D-09 4.710000000000D+02
    2.161800000000D+04 4.000000000000D+00
15 24  1  7  8  0  0.0 1.147342845798D-04 3.865352482535D-12 0.000000000000D+00
    7.000000000000D+01-5.093750000000D+00 5.432726294857D-09-4.454811689245D-01
   -8.940696716309D-08 1.543277164456D-02 7.895752787590D-06 5.153584976196D+03
    2.880000000000D+04-1.322478055954D-07 1.913686280944D-01 1.210719347000D-07
    9.344411906549D-01 2.145625000000D+02 1.284930625330D+00-8.615001706544D-09
    3.982308736286D-10 1.000000000000D+00 2.296000000000D+03 0.000000000000D+00
    2.000000000000D+00 0.000000000000D+00-1.024454832077D-08 7.000000000000D+01
    2.161800000000D+04 4.000000000000D+00
16 24  1  7  8  0  0.0-3.891019150615D-04 7.617018127348D-12 0.000000000000D+00
    6.900000000000D+01 7.712500000000D+01 4.224104522337D-09 1.545838910715D+00
    4.047527909279D-06 1.391250477172D-02 9.829178452492D-06 5.153721252441D+03
    2.880000000000D+04-2.626329660416D-07 2.521255654110D+00 2.421438694000D-08
    9.631697857162D-01 1.962812500000D+02 8.136634932647D-01-7.948545374534D-09
   -2.646538810393D-10 1.000000000000D+00 2.296000000000D+03 0.000000000000D+00
    2.000000000000D+00 0.000000000000D+00-1.024454832077D-08 6.900000000000D+01
    2.223900000000D+04 4.000000000000D+00
17 24  1  7  8  0  0.0 7.204436697066D-04-9.094947017729D-13 0.000000000000D+00
    1.800000000000D+01 6.653125000000D+01 4.442685055665D-09 5.930912415908D-01
    3.365799784660D-06 1.372155896388D-02 3.162771463394D-06 5.153647628784D+03
    2.880000000000D+04-1.657754182816D-07-2.741133619492D+00-1.620501279831D-07
    9.713211901235D-01 3.228750000000D+02-1.348771646164D+00-8.503925651209D-09
    1.078616357272D-10 1.000000000000D+00 2.296000000000D+03 0.000000000000D+00
    2.000000000000D+00 0.000000000000D+00-1.117587089539D-08 1.800000000000D+01
    2.161800000000D+04 4.000000000000D+00
18 24  1  7  8  0  0.0-5.260379984975D-04-9.436007530894D-12 0.000000000000D+00
    2.700000000000D+01-7.440625000000D+01 4.259820295757D-09-1.503577887471D+00
   -4.041939973831D-06 3.827133681625D-03 3.341585397720D-06 5.153635274887D+03
    2.880000000000D+04 1.117587089539D-08-1.736653947202D+00-6.519258022308D-08
    9.742393386475D-01 3.218750000000D+02-3.018966649907D+00-8.104980462112D-09
   -2.964409193827D-11 1.000000000000D+00 2.296000000000D+03 0.000000000000D+00
    2.000000000000D+00 0.000000000000D+00-8.381903171539D-09 7.950000000000D+02
    2.503800000000D+04 4.000000000000D+00
19 24  1  7  8  0  0.0 4.231496714056D-04 5.229594535194D-12 0.000000000000D+00
    3.100000000000D+01 7.306250000000D+01 4.400183285296D-09 2.639941868724D+00
    3.695487976074D-06 9.394789929502D-03 2.380460500717D-06 5.153679485321D+03
    2.880000000000D+04 1.676380634308D-08-2.696736833868D+00 1.508742570877D-07
    9.704463300021D-01 3.351875000000D+02 2.465801627472D+00-8.169983169735D-09
    9.893269237232D-11 1.000000000000D+00 2.296000000000D+03 0.000000000000D+00
    2.000000000000D+00 0.000000000000D+00-1.536682248116D-08 3.100000000000D+01
    2.161800000000D+04 4.000000000000D+00
20 24  1  7  8  0  0.0 3.927676007152D-04-1.932676241267D-12 0.000000000000D+00
    7.200000000000D+01-9.534375000000D+01 4.608049086598D-09-8.560659982421D-01
   -4.820525646210D-06 4.009728785604D-03 8.920207619667D-06 5.153695180893D+03
    2.880000000000D+04 6.519258022308D-08-8.811246599560D-01 3.725290298462D-08
    9.518837999068D-01 2.019375000000D+02-2.682635756261D+00-8.024262814183D-09
    2.146517982518D-10 1.000000000000D+00 2.296000000000D+03 0.000000000000D+00
    2.000000000000D+00 0.000000000000D+00-8.381903171539D-09 7.200000000000D+01
    2.161800000000D+04 4.000000000000D+00
21 24  1  7  8  0  0.0 1.391889527440D-04-1.250555214938D-12 0.000000000000D+00
    5.900000000000D+01-6.746875000000D+01 4.804842998140D-09 5.275927594419D-01
   -3.971159458160D-06 2.516661188565D-02 3.343448042870D-06 5.153731807709D+03
    2.880000000000D+04 2.346932888031D-07-1.844339784429D+00-4.060566425323D-07
    9.616750403912D-01 3.164375000000D+02-6.555243529919D-01-8.681433045104D-09
   -9.678974596714D-11 1.000000000000D+00 2.296000000000D+03 0.000000000000D+00
    2.000000000000D+00 0.000000000000D+00-1.024454832077D-08 5.900000000000D+01
    2.161800000000D+04 4.000000000000D+00
